start=new Date('2023-05-28T00:00:00.000Z').valueOf();
sats=[{"TIME_SYSTEM":"UTC","COUNTRY_CODE":"US","ARG_OF_PERICENTER":"80.4539","PERIOD":"95.437","GP_ID":"232633594","BSTAR":"-0.00006091000000","DECAY_DATE":null,"MEAN_MOTION_DDOT":"0.0000000000000","OBJECT_ID":"2021-115AU","PERIAPSIS":"539.011","APOAPSIS":"540.397","MEAN_MOTION_DOT":"-0.00001257","LAUNCH_DATE":"2021-12-02","ELEMENT_SET_NO":"999","REV_AT_EPOCH":"8218","MEAN_ANOMALY":"279.6567","INCLINATION":"53.2186","RA_OF_ASC_NODE":"23.5116","OBJECT_TYPE":"PAYLOAD","EPHEMERIS_TYPE":"0","CLASSIFICATION_TYPE":"U","RCS_SIZE":"LARGE","OBJECT_NAME":"STARLINK-3190","TLE_LINE1":"1 49766U 21115AU  23147.93606092 -.00001257  00000-0 -60910-4 0  9991","CENTER_NAME":"EARTH","ECCENTRICITY":"0.00010020","FILE":"3918755","MEAN_MOTION":"15.08853643","REF_FRAME":"TEME","SITE":"AFETR","MEAN_ELEMENT_THEORY":"SGP4","TLE_LINE2":"2 49766  53.2186  23.5116 0001002  80.4539 279.6567 15.08853643 82183","SEMIMAJOR_AXIS":"6917.839","EPOCH":"2023-05-27T22:27:55.663488","NORAD_CAT_ID":"49766"},{"BSTAR":"0.00007320400000","DECAY_DATE":null,"MEAN_MOTION_DDOT":"0.0000000000000","OBJECT_ID":"2021-115AV","PERIAPSIS":"538.867","TIME_SYSTEM":"UTC","COUNTRY_CODE":"US","PERIOD":"95.437","ARG_OF_PERICENTER":"83.3820","GP_ID":"232632842","OBJECT_TYPE":"PAYLOAD","EPHEMERIS_TYPE":"0","CLASSIFICATION_TYPE":"U","APOAPSIS":"540.603","MEAN_MOTION_DOT":"0.00000877","LAUNCH_DATE":"2021-12-02","ELEMENT_SET_NO":"999","REV_AT_EPOCH":"8218","MEAN_ANOMALY":"276.7315","RA_OF_ASC_NODE":"23.5399","INCLINATION":"53.2188","OBJECT_NAME":"STARLINK-3192","TLE_LINE1":"1 49767U 21115AV  23147.92774417  .00000877  00000-0  73204-4 0  9993","CENTER_NAME":"EARTH","ECCENTRICITY":"0.00012550","MEAN_MOTION":"15.08843304","FILE":"3918755","REF_FRAME":"TEME","RCS_SIZE":"LARGE","MEAN_ELEMENT_THEORY":"SGP4","TLE_LINE2":"2 49767  53.2188  23.5399 0001255  83.3820 276.7315 15.08843304 82186","EPOCH":"2023-05-27T22:15:57.096288","SEMIMAJOR_AXIS":"6917.870","NORAD_CAT_ID":"49767","SITE":"AFETR"},{"OBJECT_ID":"2021-115AW","PERIAPSIS":"538.953","BSTAR":"-0.00000740010000","MEAN_MOTION_DDOT":"0.0000000000000","DECAY_DATE":null,"GP_ID":"232633092","ARG_OF_PERICENTER":"89.2635","PERIOD":"95.438","TIME_SYSTEM":"UTC","COUNTRY_CODE":"US","EPHEMERIS_TYPE":"0","CLASSIFICATION_TYPE":"U","OBJECT_TYPE":"PAYLOAD","INCLINATION":"53.2185","RA_OF_ASC_NODE":"23.4726","MEAN_MOTION_DOT":"-0.00000406","LAUNCH_DATE":"2021-12-02","ELEMENT_SET_NO":"999","APOAPSIS":"540.545","MEAN_ANOMALY":"270.8489","REV_AT_EPOCH":"8218","MEAN_MOTION":"15.08838783","FILE":"3918755","REF_FRAME":"TEME","OBJECT_NAME":"STARLINK-3196","CENTER_NAME":"EARTH","ECCENTRICITY":"0.00011510","TLE_LINE1":"1 49768U 21115AW  23147.94246926 -.00000406  00000-0 -74001-5 0  9992","RCS_SIZE":"LARGE","TLE_LINE2":"2 49768  53.2185  23.4726 0001151  89.2635 270.8489 15.08838783 82183","NORAD_CAT_ID":"49768","EPOCH":"2023-05-27T22:37:09.344064","SEMIMAJOR_AXIS":"6917.884","MEAN_ELEMENT_THEORY":"SGP4","SITE":"AFETR"},{"MEAN_ANOMALY":"269.6101","REV_AT_EPOCH":"8218","LAUNCH_DATE":"2021-12-02","ELEMENT_SET_NO":"999","MEAN_MOTION_DOT":"0.00000202","APOAPSIS":"540.416","INCLINATION":"53.2175","RA_OF_ASC_NODE":"23.5209","OBJECT_TYPE":"PAYLOAD","CLASSIFICATION_TYPE":"U","EPHEMERIS_TYPE":"0","COUNTRY_CODE":"US","TIME_SYSTEM":"UTC","GP_ID":"232633344","ARG_OF_PERICENTER":"90.5005","PERIOD":"95.437","MEAN_MOTION_DDOT":"0.0000000000000","DECAY_DATE":null,"BSTAR":"0.00003076100000","PERIAPSIS":"539.051","OBJECT_ID":"2021-115AX","SITE":"AFETR","MEAN_ELEMENT_THEORY":"SGP4","NORAD_CAT_ID":"49769","SEMIMAJOR_AXIS":"6917.868","EPOCH":"2023-05-27T22:38:32.240544","TLE_LINE2":"2 49769  53.2175  23.5209 0000986  90.5005 269.6101 15.08843916 82182","RCS_SIZE":"LARGE","CENTER_NAME":"EARTH","ECCENTRICITY":"0.00009860","TLE_LINE1":"1 49769U 21115AX  23147.94342871  .00000202  00000-0  30761-4 0  9995","OBJECT_NAME":"STARLINK-3208","REF_FRAME":"TEME","FILE":"3918755","MEAN_MOTION":"15.08843916"},{"SITE":"AFETR","MEAN_ELEMENT_THEORY":"SGP4","NORAD_CAT_ID":"49770","EPOCH":"2023-05-27T22:49:08.241312","SEMIMAJOR_AXIS":"6917.872","TLE_LINE2":"2 49770  53.2175  23.4861 0001091  80.0542 280.0573 15.08842583 83309","RCS_SIZE":"LARGE","ECCENTRICITY":"0.00010910","CENTER_NAME":"EARTH","TLE_LINE1":"1 49770U 21115AY  23147.95078983  .00000778  00000-0  66944-4 0  9998","OBJECT_NAME":"STARLINK-3191","REF_FRAME":"TEME","MEAN_MOTION":"15.08842583","FILE":"3918755","MEAN_ANOMALY":"280.0573","REV_AT_EPOCH":"8330","ELEMENT_SET_NO":"999","LAUNCH_DATE":"2021-12-02","MEAN_MOTION_DOT":"0.00000778","APOAPSIS":"540.492","INCLINATION":"53.2175","RA_OF_ASC_NODE":"23.4861","OBJECT_TYPE":"PAYLOAD","CLASSIFICATION_TYPE":"U","EPHEMERIS_TYPE":"0","COUNTRY_CODE":"US","TIME_SYSTEM":"UTC","GP_ID":"232634094","PERIOD":"95.437","ARG_OF_PERICENTER":"80.0542","MEAN_MOTION_DDOT":"0.0000000000000","DECAY_DATE":null,"BSTAR":"0.00006694400000","PERIAPSIS":"538.983","OBJECT_ID":"2021-115AY"},{"ECCENTRICITY":"0.00011840","CENTER_NAME":"EARTH","TLE_LINE1":"1 49771U 21115AZ  23147.94982732  .00000506  00000-0  49882-4 0  9995","OBJECT_NAME":"STARLINK-3201","REF_FRAME":"TEME","MEAN_MOTION":"15.08842531","FILE":"3918755","RCS_SIZE":"LARGE","MEAN_ELEMENT_THEORY":"SGP4","NORAD_CAT_ID":"49771","SEMIMAJOR_AXIS":"6917.873","EPOCH":"2023-05-27T22:47:45.080448","TLE_LINE2":"2 49771  53.2182  23.4435 0001184  83.6873 276.4254 15.08842531 82187","SITE":"AFETR","MEAN_MOTION_DDOT":"0.0000000000000","DECAY_DATE":null,"BSTAR":"0.00004988200000","PERIAPSIS":"538.919","OBJECT_ID":"2021-115AZ","COUNTRY_CODE":"US","TIME_SYSTEM":"UTC","GP_ID":"232632343","ARG_OF_PERICENTER":"83.6873","PERIOD":"95.437","OBJECT_TYPE":"PAYLOAD","CLASSIFICATION_TYPE":"U","EPHEMERIS_TYPE":"0","MEAN_ANOMALY":"276.4254","REV_AT_EPOCH":"8218","LAUNCH_DATE":"2021-12-02","ELEMENT_SET_NO":"999","MEAN_MOTION_DOT":"0.00000506","APOAPSIS":"540.557","RA_OF_ASC_NODE":"23.4435","INCLINATION":"53.2182"},{"REF_FRAME":"TEME","MEAN_MOTION":"15.08840971","FILE":"3918755","CENTER_NAME":"EARTH","ECCENTRICITY":"0.00010110","TLE_LINE1":"1 50156U 21125A   23147.70145921  .00000476  00000-0  47974-4 0  9996","OBJECT_NAME":"STARLINK-3317","RCS_SIZE":"LARGE","NORAD_CAT_ID":"50156","SEMIMAJOR_AXIS":"6917.877","EPOCH":"2023-05-27T16:50:06.075744","TLE_LINE2":"2 50156  53.2155 134.5537 0001011  90.5527 269.5581 15.08840971 83100","MEAN_ELEMENT_THEORY":"SGP4","SITE":"AFWTR","PERIAPSIS":"539.043","OBJECT_ID":"2021-125A","MEAN_MOTION_DDOT":"0.0000000000000","DECAY_DATE":null,"BSTAR":"0.00004797400000","GP_ID":"232632355","PERIOD":"95.437","ARG_OF_PERICENTER":"90.5527","COUNTRY_CODE":"US","TIME_SYSTEM":"UTC","CLASSIFICATION_TYPE":"U","EPHEMERIS_TYPE":"0","OBJECT_TYPE":"PAYLOAD","RA_OF_ASC_NODE":"134.5537","INCLINATION":"53.2155","MEAN_ANOMALY":"269.5581","REV_AT_EPOCH":"8310","MEAN_MOTION_DOT":"0.00000476","LAUNCH_DATE":"2021-12-18","ELEMENT_SET_NO":"999","APOAPSIS":"540.442"},{"RCS_SIZE":"LARGE","OBJECT_NAME":"STARLINK-3313","TLE_LINE1":"1 50157U 21125B   23147.72535044 -.00000249  00000-0  24036-5 0  9992","CENTER_NAME":"EARTH","ECCENTRICITY":"0.00010110","MEAN_MOTION":"15.08836876","FILE":"3918755","REF_FRAME":"TEME","SITE":"AFWTR","MEAN_ELEMENT_THEORY":"SGP4","TLE_LINE2":"2 50157  53.2156 144.4488 0001011  88.3695 271.7413 15.08836876 82970","SEMIMAJOR_AXIS":"6917.890","EPOCH":"2023-05-27T17:24:30.278016","NORAD_CAT_ID":"50157","TIME_SYSTEM":"UTC","COUNTRY_CODE":"US","ARG_OF_PERICENTER":"88.3695","PERIOD":"95.438","GP_ID":"232632605","BSTAR":"0.00000240360000","DECAY_DATE":null,"MEAN_MOTION_DDOT":"0.0000000000000","OBJECT_ID":"2021-125B","PERIAPSIS":"539.056","APOAPSIS":"540.454","LAUNCH_DATE":"2021-12-18","ELEMENT_SET_NO":"999","MEAN_MOTION_DOT":"-0.00000249","REV_AT_EPOCH":"8297","MEAN_ANOMALY":"271.7413","INCLINATION":"53.2156","RA_OF_ASC_NODE":"144.4488","OBJECT_TYPE":"PAYLOAD","EPHEMERIS_TYPE":"0","CLASSIFICATION_TYPE":"U"},{"TLE_LINE2":"2 50158  53.2157 144.5020 0001035  87.4830 272.6281 15.08837678 82998","NORAD_CAT_ID":"50158","EPOCH":"2023-05-27T17:09:58.993632","SEMIMAJOR_AXIS":"6917.887","MEAN_ELEMENT_THEORY":"SGP4","SITE":"AFWTR","FILE":"3918755","MEAN_MOTION":"15.08837678","REF_FRAME":"TEME","OBJECT_NAME":"STARLINK-3309","ECCENTRICITY":"0.00010350","CENTER_NAME":"EARTH","TLE_LINE1":"1 50158U 21125C   23147.71526613  .00000400  00000-0  43209-4 0  9994","RCS_SIZE":"LARGE","EPHEMERIS_TYPE":"0","CLASSIFICATION_TYPE":"U","OBJECT_TYPE":"PAYLOAD","RA_OF_ASC_NODE":"144.5020","INCLINATION":"53.2157","MEAN_MOTION_DOT":"0.00000400","LAUNCH_DATE":"2021-12-18","ELEMENT_SET_NO":"999","APOAPSIS":"540.468","MEAN_ANOMALY":"272.6281","REV_AT_EPOCH":"8299","OBJECT_ID":"2021-125C","PERIAPSIS":"539.036","BSTAR":"0.00004320900000","MEAN_MOTION_DDOT":"0.0000000000000","DECAY_DATE":null,"GP_ID":"232633856","PERIOD":"95.438","ARG_OF_PERICENTER":"87.4830","TIME_SYSTEM":"UTC","COUNTRY_CODE":"US"},{"RA_OF_ASC_NODE":"144.5228","INCLINATION":"53.2158","REV_AT_EPOCH":"8292","MEAN_ANOMALY":"275.2905","APOAPSIS":"540.474","LAUNCH_DATE":"2021-12-18","ELEMENT_SET_NO":"999","MEAN_MOTION_DOT":"0.00000843","CLASSIFICATION_TYPE":"U","EPHEMERIS_TYPE":"0","OBJECT_TYPE":"PAYLOAD","PERIOD":"95.438","ARG_OF_PERICENTER":"84.8207","GP_ID":"232633607","COUNTRY_CODE":"US","TIME_SYSTEM":"UTC","PERIAPSIS":"539.020","OBJECT_ID":"2021-125D","DECAY_DATE":null,"MEAN_MOTION_DDOT":"0.0000000000000","BSTAR":"0.00007104600000","SITE":"AFWTR","SEMIMAJOR_AXIS":"6917.882","EPOCH":"2023-05-27T17:04:40.786752","NORAD_CAT_ID":"50159","TLE_LINE2":"2 50159  53.2158 144.5228 0001051  84.8207 275.2905 15.08839382 82926","MEAN_ELEMENT_THEORY":"SGP4","RCS_SIZE":"LARGE","REF_FRAME":"TEME","FILE":"3918755","MEAN_MOTION":"15.08839382","TLE_LINE1":"1 50159U 21125D   23147.71158318  .00000843  00000-0  71046-4 0  9999","CENTER_NAME":"EARTH","ECCENTRICITY":"0.00010510","OBJECT_NAME":"STARLINK-3297"}];
